#aV2022  8 27  0  0  0.00000000     288 DD+AD WGS84 FIT  NGA
## 2224 518400.00000000   300.00000000 59818 0.0000000000000
+   32     1  2  3  4  5  6  7  8  9 10 11 12 13 14 15 16 17
+         18 19 20 21 22 23 24 25 26 27 28 29 30 31 32  0  0
+          0  0  0  0  0  0  0  0  0  0  0  0  0  0  0  0  0
+          0  0  0  0  0  0  0  0  0  0  0  0  0  0  0  0  0
+          0  0  0  0  0  0  0  0  0  0  0  0  0  0  0  0  0
++         2  2  2  2  2  2  2  2  2  2  2  2  2  2  2  2  2
++         2  2  2  2  2  2  2  2  2  2  2  2  2  2  2  0  0
++         0  0  0  0  0  0  0  0  0  0  0  0  0  0  0  0  0
++         0  0  0  0  0  0  0  0  0  0  0  0  0  0  0  0  0
++         0  0  0  0  0  0  0  0  0  0  0  0  0  0  0  0  0
%c cc cc ccc ccc cccc cccc cccc cccc ccccc ccccc ccccc ccccc
%c cc cc ccc ccc cccc cccc cccc cccc ccccc ccccc ccccc ccccc
%f  0.0000000  0.000000000  0.00000000000  0.000000000000000
%f  0.0000000  0.000000000  0.00000000000  0.000000000000000
%i    0    0    0    0      0      0      0      0         0
%i    0    0    0    0      0      0      0      0         0
/*      NGA, ST. LOUIS,MO.                                  
/*   EPHEMERIS COMPUTED FROM 2 DAYS OF DATA                 
/*   EPOCHA v8 SMOOTHER                                     
/*   G2139 IERS2010 SATIGS SATAPC                           
*  2022  8 27 21 35  0.00000000
P  1 -13237.336912   8698.200247  20942.383729    294.280882                    
V  1  -2631.717284 -27201.314942   9820.758977     -0.068107                    
P  2  15192.011104   4586.438966 -20651.083712   -647.894697                    
V  2   3560.920811  27475.043095   8627.751161      0.011252                    
P  3 -23186.646697  11595.936179   5372.713953   -340.436085                    
V  3   4381.296798  -5960.660631  31157.562890     -0.073160                    
P  4 -20848.975650   2077.464049 -16376.489354   -127.140240                    
V  4 -17631.654192 -11103.149808  20939.599716      0.052954                    
P  5  21135.580480  -1783.246042 -16247.973033    -94.474126                    
V  5 -15100.964186  13597.979761 -21235.518915     -0.014185                    
P  6   6705.480868  24578.977884  -7314.810396    440.685950                    
V  6  -1206.212877   9482.514830  30569.132988      0.134650                    
P  7  -6492.005108  22565.372144 -11504.211143    311.867065                    
V  7  -4315.995009 -15164.607636 -26847.147733     -0.025297                    
P  8 -24823.975264  -4263.460263   8931.634455    -82.222872                    
V  8  -9394.421684  -6655.610393 -28808.071318     -0.014837                    
P  9 -11104.944852  11511.630481 -21284.577601   -303.216778                    
V  9 -24267.886802 -11538.619076   6405.846524      0.044651                    
P 10   3358.027430 -18145.745379  19133.464391     -0.696753                    
V 10  20492.860452 -12657.884047 -16017.996273     -0.017805                    
P 11  12194.628196  16513.156687 -16873.036857    -12.928506                    
V 11  -1108.537024  21442.760191  20153.924198     -0.018421                    
P 12  23999.337701  -9054.932614   6417.016235   -269.057272                    
V 12  -5996.660416   6582.508254  30561.709155     -0.059773                    
P 13  23027.207041  13229.936212   2187.688094    376.194884                    
V 13   1174.093698   3616.354306 -31666.700561      0.073836                    
P 14  -5704.194113  18764.510359  17868.036520   -107.188839                    
V 14 -20148.928678  10707.677999 -17789.748366      0.020208                    
P 15  25189.891890   1609.183074   8305.975969    -33.792722                    
V 15   9550.202197   6540.816104 -28437.904945      0.030795                    
P 16 -17753.186823  -5346.729282 -19459.824000   -522.179827                    
V 16  20388.495836 -12610.340801 -14906.014076     -0.014016                    
P 17   4038.370573  17559.520464  19929.493768    653.045955                    
V 17 -21761.236408 -10933.059510  14414.188998      0.039969                    
P 18   6300.993620 -23111.347139 -11337.509026     67.966543                    
V 18   3096.464125  14245.529509 -27466.724691     -0.123708                    
P 19  13846.929640  18648.387443  12861.574393    202.896272                    
V 19 -15089.587186  -7158.901337  25889.572556      0.050421                    
P 20  12570.295374   9408.007595 -21400.511569    491.257298                    
V 20 -19366.706043  19202.639861  -3160.217366     -0.031339                    
P 21 -15828.709550  -1628.794070  21961.137714    160.100239                    
V 21  -4253.475934 -26004.274946  -4424.391363     -0.003761                    
P 22 -15775.557538 -18393.945503  11494.974518    317.407010                    
V 22  13091.171263   5124.951054  26991.567317      0.067126                    
P 23  13199.781163 -19721.934139  11790.619596    -38.200346                    
V 23  13426.501175  -7091.183919 -26981.804597     -0.010700                    
P 24  15053.735003  -4487.369902  21080.457171    154.961195                    
V 24   4978.024511  27188.878266   2615.763390     -0.121267                    
P 25  19151.248361 -17621.359129  -4800.987469    365.616706                    
V 25   6529.964909   -780.897481  31021.654706      0.041984                    
P 26 -10174.272184 -12086.748686 -21442.728396    225.802235                    
V 26  21405.712901 -16641.928824   -462.262474      0.018377                    
P 27 -23212.735965 -13084.613134  -2836.098044    216.750004                    
V 27   3879.934037   -507.970854 -31467.415575     -0.027361                    
P 28   3244.518443  15485.724601  21871.430288    340.441722                    
V 28 -23269.706940  12733.306536  -5464.585230     -0.006011                    
P 29  12220.194385  -9677.746624 -21564.089163   -546.549519                    
V 29  23416.701592  13840.435829   6994.539205     -0.033037                    
P 30    627.297356  26363.341431  -1550.011193   -536.422650                    
V 30  -3959.801096  -1837.307065 -31270.063266     -0.004421                    
P 31  -7961.281332 -23364.091528  -9298.751667   -191.226611                    
V 31   2362.098265 -11929.570933  28823.119368     -0.013770                    
P 32  -8061.090078 -17816.945895  18207.655304   -216.089314                    
V 32  21250.559041   8264.368725  17450.287261     -0.109203                    
EOF
